ONEWEB-0584             
1 54651U 22166K   24059.91583291  .00000081  00000+0  16530-3 0  9992
2 54651  87.9225  51.0168 0002211  95.5723 264.5663 13.21826218 60646
ONEWEB-0585             
1 54652U 22166L   24060.24384987 -.00000488  00000+0 -12135-2 0  9991
2 54652  87.9231  50.9575 0002050  79.8865 280.2500 13.21823112 61160
ONEWEB-0586             
1 54653U 22166M   24059.95368127 -.00000048  00000+0 -14720-3 0  9991
2 54653  87.9221  51.0373 0002119  92.1494 267.9883 13.21824834 60651
ONEWEB-0587             
1 54654U 22166N   24059.96312813  .00000007  00000+0 -14831-4 0  9992
2 54654  87.9219  50.9924 0001736  77.8133 282.3195 13.21826060 60811
ONEWEB-0589             
1 54655U 22166P   24059.95051599  .00000035  00000+0  52147-4 0  9995
2 54655  87.9223  51.0219 0002564 107.8348 252.3066 13.21827208 60671
ONEWEB-0590             
1 54656U 22166Q   24060.20127122 -.00000041  00000+0 -13174-3 0  9997
2 54656  87.9227  50.9749 0001671  86.9179 273.2146 13.21824919 61150
ONEWEB-0591             
1 54657U 22166R   24059.91109041  .00000065  00000+0  12570-3 0  9997
2 54657  87.9221  51.0338 0002019  92.3778 267.7587 13.21826111 60684
ONEWEB-0592             
1 54658U 22166S   24059.91424407 -.00000013  00000+0 -62362-4 0  9994
2 54658  87.9217  51.0029 0002041  95.9589 264.1778 13.21826827 60565
